TIANYAN 01              
1 44881U 19093C   24055.52516373  .00001521  00000+0  19200-3 0  9998
2 44881  97.8372 134.5017 0013985 339.6760  20.3895 14.83306845226193
RS-44 & BREEZE-KM R/B   
1 44909U 19096E   24055.59230545  .00000008  00000+0 -46364-5 0  9996
2 44909  82.5250 180.2397 0216598 317.0063  41.4285 12.79726736194447
BY70-2                  
1 45857U 20042B   24055.55022211  .00051385  00000+0  32969-2 0  9993
2 45857  97.9149 144.0015 0008360 243.0497 116.9876 15.08260259197318
SALSAT                  
1 46495U 20068K   24055.58683464  .00007232  00000+0  43472-3 0  9990
2 46495  97.8032  12.3037 0013925 349.8526  10.2420 15.11107272187149
RADFXSAT-2 (AO-109)     
1 47311U 21002C   24055.57405147  .00146275  00000+0  11533-2 0  9999
2 47311  60.6699 151.6397 0025040  66.5074 293.8663 15.70244742173414
UVSQ-SAT                
1 47438U 21006AB  24055.13954302  .00030612  00000+0  85230-3 0  9990
2 47438  97.3459 115.0287 0006453 262.5400  97.5112 15.36737342171168
LEDSAT                  
1 49069U 21073D   24055.15914666  .00012672  00000+0  57983-3 0  9997
2 49069  97.4512 127.3793 0020270 326.8109  33.1853 15.20472690139103
XW-3 (CAS-9)            
1 50466U 21131B   24055.54994716  .00000882  00000+0  29762-3 0  9996
2 50466  98.5325 141.1691 0005296 105.2856 254.8917 14.39382796113651
TEVEL-3                 
1 50988U 22002E   24055.48564984  .00060955  00000+0  13685-2 0  9999
2 50988  97.3969 127.9906 0004734  57.8000 302.3706 15.43155344117406
TEVEL-8                 
1 50989U 22002F   24055.45281423  .00050645  00000+0  11431-2 0  9993
2 50989  97.3988 128.0417 0004697  56.8168 303.3529 15.43044676117396
TEVEL-5                 
1 50998U 22002Q   24055.48680435  .00067767  00000+0  14171-2 0  9999
2 50998  97.3962 128.8349 0005165  47.6160 312.5526 15.45229909117464
TEVEL-6                 
1 50999U 22002R   24055.48742991  .00068355  00000+0  14316-2 0  9991
2 50999  97.3961 128.8198 0005158  47.2603 312.9079 15.45182071117461
TEVEL-1                 
1 51013U 22002AF  24055.44132662  .00050823  00000+0  11469-2 0  9990
2 51013  97.3962 127.8362 0004599  58.1798 301.9897 15.43049999117393
TEVEL-7                 
1 51062U 22002CG  24055.44747859  .00051893  00000+0  11681-2 0  9998
2 51062  97.3980 128.0077 0004698  56.9198 303.2500 15.43119693117398
TEVEL-4                 
1 51063U 22002CH  24055.46955620  .00050599  00000+0  11462-2 0  9997
2 51063  97.3980 127.9699 0004659  57.2375 302.9321 15.42936923117394
TEVEL-2                 
1 51069U 22002CP  24055.48548800  .00061288  00000+0  13747-2 0  9998
2 51069  97.3966 127.9573 0004658  57.4441 302.7256 15.43181654117401
GREENCUBE               
1 53106U 22080B   24052.39186089 -.00000003  00000+0  00000+0 0  9996
2 53106  70.1294 233.0989 0008303 129.7166 230.4226  6.42557771 37766
CYCLOPS (RS29S)         
1 53373U 22096D   24055.53338107  .00834820  33639-3  15503-2 0  9994
2 53373  97.3806 335.6796 0008800 122.4401 237.7730 16.01084619 86914
MONITOR-1 (RS32S)       
1 53374U 22096E   24055.42055581  .00305130  00000+0  14267-2 0  9990
2 53374  97.3828 334.0974 0006615  99.5593 260.6424 15.82439669 86819
KUZBASS-300 (RS34S)     
1 53375U 22096F   24055.52741448  .00105747  00000+0  12191-2 0  9992
2 53375  97.3952 331.5725 0004029  89.7706 270.4013 15.61592045 86647
UTMN (RS23S)            
1 53376U 22096G   24055.58286431  .00117974  00000+0  12004-2 0  9993
2 53376  97.3934 332.2209 0004570  86.4997 273.6785 15.64758089 86691
MIET-AIS (RS28S)        
1 53377U 22096H   24055.57357616  .00079894  00000+0  10608-2 0  9993
2 53377  97.3980 331.1018 0003771  86.8653 273.3034 15.57953796 86614
KAI-1 (RS26S)           
1 53378U 22096J   24055.57475421  .00047316  00000+0  79810-3 0  9994
2 53378  97.4023 329.8174 0003404  72.4588 287.7036 15.51516616 86523
ISOI (RS19S)            
1 53381U 22096M   24055.60111520  .00083651  00000+0  10508-2 0  9999
2 53381  97.3995 331.8056 0003624 109.4171 250.7478 15.59417463 86662
CUBESX-HSE-2 (RS21S)    
1 53383U 22096P   24055.55852828  .00116884  00000+0  12145-2 0  9992
2 53383  97.3943 332.4325 0004396 118.3922 241.7780 15.64229553 86701
SIREN (RS30S)           
1 53384U 22096Q   24055.59960670  .00067502  00000+0  98540-3 0  9998
2 53384  97.3992 330.9386 0003254 123.8132 236.3432 15.55437556 86609
CAS-5A (FO-118)         
1 54684U 22167C   24055.53715143  .00024678  00000+0  10419-2 0  9993
2 54684  97.5883 198.4218 0011113 182.6303 177.4877 15.23206436 66962
STRATOSAT-TK 1 (RS52S)  
1 57167U 23091B   24055.59917605  .00012012  00000+0  77007-3 0  9998
2 57167  97.6296 109.2351 0017338 144.4375 215.8012 15.08543430 36414
UMKA 1 (RS40S)          
1 57172U 23091G   24055.56874079  .00006554  00000+0  45332-3 0  9998
2 57172  97.6285 108.8134 0018011 145.8059 214.4332 15.05910719 36386
CUBESX-HSE 3 (RS42S)    
1 57178U 23091N   24055.60120733  .00007471  00000+0  50593-3 0  9994
2 57178  97.6335 109.0408 0019137 139.6185 220.6467 15.06633927 36399
MONITOR-4 (RS57S)       
1 57182U 23091S   24055.56014687  .00008094  00000+0  55217-3 0  9994
2 57182  97.6317 108.9049 0019090 141.7278 218.5308 15.06332179 36382
MONITOR-2 (RS39S)       
1 57184U 23091U   24055.54987061  .00005318  00000+0  36552-3 0  9996
2 57184  97.6329 109.0868 0015625 134.3426 225.9084 15.06266145 36394
SVYATOBOR 1 (RS60S)     
1 57187U 23091X   24055.59881277  .00006662  00000+0  44514-3 0  9996
2 57187  97.6328 109.3334 0015414 131.6808 228.5741 15.07226057 36418
VIZARD-METEO (RS38S)    
1 57189U 23091Z   24055.57338094  .00008425  00000+0  54819-3 0  9998
2 57189  97.6313 109.4969 0014053 130.7731 229.4719 15.08140298 36421
NANOZOND 1 (RS49S)      
1 57190U 23091AA  24055.58964942  .00010447  00000+0  65218-3 0  9990
2 57190  97.6292 109.7002 0012634 134.9758 225.2497 15.09612205 36440
POLYTECH-UNIVERSE 3 (R*)
1 57191U 23091AB  24055.54693164  .00005400  00000+0  37169-3 0  9999
2 57191  97.6296 108.8355 0020864 151.5908 208.6462 15.06128161 36382
UTMN 2 (RS27S)          
1 57203U 23091AP  24055.60132108  .00007628  00000+0  50078-3 0  9994
2 57203  97.6321 109.4586 0014680 130.0743 230.1774 15.07837403 36424
ARCCUBE 1 (RS25S)       
1 57205U 23091AR  24055.56079848  .00013892  00000+0  85286-3 0  9991
2 57205  97.6269 109.6797 0012638 137.1198 223.1019 15.10150858 36448
KUZGTU 1 (RS47S)        
1 57217U 23091AV  24055.60203570  .00007425  00000+0  50373-3 0  9994
2 57217  97.6309 108.9624 0019041 140.7695 219.4916 15.06565212 36391
HADES-D (SO-121)        
1 58567U 23174CY  24055.19034432  .00028223  00000+0  13511-2 0  9999
2 58567  97.4680 131.5342 0014008 268.8145  91.1484 15.18831998 16426
